H1 CPF 01  gfz 2021 04 11 12  6012 tandemx   
H2 1003001  6202 36605    2021 04 11 12 59 42 2021 04 16 00 00 42   120 1 1  0 0 0
H9
10 0 59316  26622.000000  0   -1210997.355   -491008.115  -6770300.311
10 0 59316  26742.000000  0   -2037981.451   -137185.088  -6585675.479
10 0 59316  26862.000000  0   -2823326.813    233122.965  -6286160.096
10 0 59316  26982.000000  0   -3553175.232    612649.308  -5876910.793
10 0 59316  27102.000000  0   -4214732.316    993724.011  -5364987.540
10 0 59316  27222.000000  0   -4796493.627   1368423.609  -4759242.969
10 0 59316  27342.000000  0   -5288450.826   1728731.938  -4070181.947
10 0 59316  27462.000000  0   -5682272.446   2066708.239  -3309788.733
10 0 59316  27582.000000  0   -5971455.379   2374657.831  -2491326.520
10 0 59316  27702.000000  0   -6151444.168   2645302.896  -1629110.630
10 0 59316  27822.000000  0   -6219713.754   2871949.277   -738258.558
10 0 59316  27942.000000  0   -6175813.050   3048644.822    165578.696
10 0 59316  28062.000000  0   -6021366.540   3170324.405   1066499.126
10 0 59316  28182.000000  0   -5760032.801   3232938.301   1948638.239
10 0 59316  28302.000000  0   -5397422.014   3233560.093   2796457.470
10 0 59316  28422.000000  0   -4940974.776   3170471.656   3595025.793
10 0 59316  28542.000000  0   -4399804.881   3043222.285   4330289.586
10 0 59316  28662.000000  0   -3784510.128   2852660.872   4989322.944
10 0 59316  28782.000000  0   -3106958.016   2600941.591   5560554.786
10 0 59316  28902.000000  0   -2380049.666   2291503.221   6033970.624
10 0 59316  29022.000000  0   -1617467.379   1929021.414   6401283.635
10 0 59316  29142.000000  0    -833411.864   1519335.929   6656073.233
10 0 59316  29262.000000  0     -42336.325   1069354.416   6793889.928
10 0 59316  29382.000000  0     741319.466    586934.638   6812328.238
10 0 59316  29502.000000  0    1503391.897     80747.272   6711065.750
10 0 59316  29622.000000  0    2230248.261   -439879.093   6491868.748
10 0 59316  29742.000000  0    2909030.180   -965129.387   6158564.239
10 0 59316  29862.000000  0    3527882.737  -1484885.962   5716978.006
10 0 59316  29982.000000  0    4076165.420  -1988923.308   5174838.241
10 0 59316  30102.000000  0    4544639.339  -2467109.178   4541645.609
10 0 59316  30222.000000  0    4925629.462  -2909609.305   3828513.085
10 0 59316  30342.000000  0    5213158.586  -3307091.860   3047974.253
10 0 59316  30462.000000  0    5403047.934  -3650925.400   2213762.165
10 0 59316  30582.000000  0    5492981.056  -3933366.395   1340565.069
10 0 59316  30702.000000  0    5482531.268  -4147732.415    443762.617
10 0 59316  30822.000000  0    5373150.877  -4288554.753   -460852.360
10 0 59316  30942.000000  0    5168122.427  -4351708.203  -1357360.987
10 0 59316  31062.000000  0    4872472.560  -4334512.835  -2230007.426
10 0 59316  31182.000000  0    4492851.039  -4235806.087  -3063483.074
10 0 59316  31302.000000  0    4037378.990  -4055983.991  -3843199.565
10 0 59316  31422.000000  0    3515470.123  -3797010.128  -4555545.161
10 0 59316  31542.000000  0    2937630.436  -3462393.645  -5188119.388
10 0 59316  31662.000000  0    2315241.331  -3057136.987  -5729941.846
10 0 59316  31782.000000  0    1660332.769  -2587656.304  -6171632.085
10 0 59316  31902.000000  0     985350.481  -2061676.582  -6505562.327
10 0 59316  32022.000000  0     302919.855  -1488100.840  -6725979.241
10 0 59316  32142.000000  0    -374387.171   -876858.166  -6829092.203
10 0 59316  32262.000000  0   -1034278.200   -238733.766  -6813130.298
10 0 59316  32382.000000  0   -1664958.013    414817.067  -6678369.124
10 0 59316  32502.000000  0   -2255334.566   1071869.227  -6427125.939
10 0 59316  32622.000000  0   -2795209.516   1720239.817  -6063724.202
10 0 59316  32742.000000  0   -3275452.103   2347708.584  -5594427.654
10 0 59316  32862.000000  0   -3688154.782   2942245.229  -5027344.237
10 0 59316  32982.000000  0   -4026768.046   3492239.549  -4372297.502
10 0 59316  33102.000000  0   -4286209.776   3986729.326  -3640666.052
10 0 59316  33222.000000  0   -4462946.261   4415621.799  -2845194.847
10 0 59316  33342.000000  0   -4555045.281   4769904.239  -1999779.554
10 0 59316  33462.000000  0   -4562198.136   5041837.597  -1119226.490
10 0 59316  33582.000000  0   -4485710.480   5225129.960   -218991.957
10 0 59316  33702.000000  0   -4328458.593   5315082.818    685095.479
10 0 59316  33822.000000  0   -4094814.528   5308706.707   1577120.223
10 0 59316  33942.000000  0   -3790540.399   5204802.690   2441370.727
10 0 59316  34062.000000  0   -3422653.341   5004005.915   3262625.520
10 0 59316  34182.000000  0   -2999265.927   4708792.375   4026427.669
10 0 59316  34302.000000  0   -2529407.709   4323449.322   4719343.533
10 0 59316  34422.000000  0   -2022830.895   3854008.947   5329201.031
10 0 59316  34542.000000  0   -1489805.648   3308147.359   5845302.506
10 0 59316  34662.000000  0    -940909.363   2695051.917   6258608.301
10 0 59316  34782.000000  0    -386815.647   2025259.936   6561888.500
10 0 59316  34902.000000  0     161912.477   1310474.148   6749843.102
10 0 59316  35022.000000  0     695023.722    563355.512   6819189.703
10 0 59316  35142.000000  0    1202769.193   -202701.178   6768716.319
10 0 59316  35262.000000  0    1676079.655   -973806.501   6599302.172
10 0 59316  35382.000000  0    2106727.313  -1735827.861   6313903.526
10 0 59316  35502.000000  0    2487469.484  -2474647.942   5917506.212
10 0 59316  35622.000000  0    2812172.587  -3176427.646   5417043.941
10 0 59316  35742.000000  0    3075913.098  -3827867.905   4821282.441
10 0 59316  35862.000000  0    3275054.328  -4416465.784   4140671.808
10 0 59316  35982.000000  0    3407298.032  -4930761.021   3387167.108
10 0 59316  36102.000000  0    3471708.149  -5360565.697   2574019.574
10 0 59316  36222.000000  0    3468706.806  -5697172.992   1715542.174
10 0 59316  36342.000000  0    3400041.616  -5933539.107    826853.337
10 0 59316  36462.000000  0    3268725.757  -6064432.466    -76395.446
10 0 59316  36582.000000  0    3078953.122  -6086549.937   -978302.615
10 0 59316  36702.000000  0    2835987.571  -5998593.029  -1863007.162
10 0 59316  36822.000000  0    2546030.924  -5801302.859  -2714974.682
10 0 59316  36942.000000  0    2216074.189  -5497455.148  -3519276.733
10 0 59316  37062.000000  0    1853733.737  -5091813.622  -4261856.336
10 0 59316  37182.000000  0    1467078.367  -4591043.402  -4929771.530
10 0 59316  37302.000000  0    1064453.173  -4003590.362  -5511414.903
10 0 59316  37422.000000  0     654302.876  -3339528.909  -5996707.116
10 0 59316  37542.000000  0     244997.972  -2610381.399  -6377260.820
10 0 59316  37662.000000  0    -155332.341  -1828913.753  -6646514.048
10 0 59316  37782.000000  0    -538957.207  -1008910.957  -6799832.684
10 0 59316  37902.000000  0    -898688.529   -164935.993  -6834582.023
10 0 59316  38022.000000  0   -1228011.716    687924.071  -6750166.163
10 0 59316  38142.000000  0   -1521200.864   1534320.552  -6548036.587
10 0 59316  38262.000000  0   -1773415.882   2358912.410  -6231669.657
10 0 59316  38382.000000  0   -1980781.533   3146637.927  -5806514.644
10 0 59316  38502.000000  0   -2140447.266   3882987.228  -5279909.725
10 0 59316  38622.000000  0   -2250626.224   4554269.629  -4660967.054
10 0 59316  38742.000000  0   -2310613.507   5147872.633  -3960425.991
10 0 59316  38862.000000  0   -2320781.801   5652505.244  -3190475.277
10 0 59316  38982.000000  0   -2282554.165   6058420.803  -2364548.626
10 0 59316  39102.000000  0   -2198355.018   6357616.494  -1497094.857
10 0 59316  39222.000000  0   -2071540.039   6544001.066   -603324.439
10 0 59316  39342.000000  0   -1906306.117   6613527.579    301059.067
10 0 59316  39462.000000  0   -1707583.402   6564290.084   1200141.877
10 0 59316  39582.000000  0   -1480910.764   6396573.523   2078092.066
10 0 59316  39702.000000  0   -1232298.286   6112857.180   2919447.458
10 0 59316  39822.000000  0    -968081.864   5717775.281   3709394.488
10 0 59316  39942.000000  0    -694773.543   5218036.405   4434034.114
10 0 59316  40062.000000  0    -418910.391   4622301.123   5080631.523
10 0 59316  40182.000000  0    -146904.182   3941019.571   5637838.475
10 0 59316  40302.000000  0     115101.016   3186240.734   6095888.624
10 0 59316  40422.000000  0     361362.035   2371390.689   6446764.728
10 0 59316  40542.000000  0     586658.164   1511028.203   6684332.537
10 0 59316  40662.000000  0     786398.648    620580.765   6804442.415
10 0 59316  40782.000000  0     956713.965   -283932.855   6804996.324
10 0 59316  40902.000000  0    1094529.752  -1186189.566   6685983.203
10 0 59316  41022.000000  0    1197622.223  -2069856.435   6449479.717
10 0 59316  41142.000000  0    1264654.173  -2918886.280   6099616.856
10 0 59316  41262.000000  0    1295190.778  -3717811.216   5642511.928
10 0 59316  41382.000000  0    1289694.792  -4452026.910   5086165.654
10 0 59316  41502.000000  0    1249502.846  -5108062.991   4440328.287
10 0 59316  41622.000000  0    1176782.041  -5673838.156   3716335.309
10 0 59316  41742.000000  0    1074467.667  -6138893.125   2926910.862
10 0 59316  41862.000000  0     946183.176  -6494593.117   2085943.615
10 0 59316  41982.000000  0     796143.247  -6734297.382   1208240.490
10 0 59316  42102.000000  0     629043.701  -6853491.443    309261.218
10 0 59316  42222.000000  0     449939.814  -6849878.610   -595162.796
10 0 59316  42342.000000  0     264115.779  -6723423.518  -1489118.263
10 0 59316  42462.000000  0      76950.910  -6476349.107  -2356898.345
10 0 59316  42582.000000  0    -106214.800  -6113089.860  -3183284.529
10 0 59316  42702.000000  0    -280212.961  -5640202.250  -3953817.622
10 0 59316  42822.000000  0    -440173.555  -5066233.522  -4655051.836
10 0 59316  42942.000000  0    -581642.758  -4401553.827  -5274785.288
10 0 59316  43062.000000  0    -700689.396  -3658157.678  -5802265.086
99
